OBJECT_NAME,OBJECT_ID,EPOCH,MEAN_MOTION,ECCENTRICITY,INCLINATION,RA_OF_ASC_NODE,ARG_OF_PERICENTER,MEAN_ANOMALY,EPHEMERIS_TYPE,CLASSIFICATION_TYPE,NORAD_CAT_ID,ELEMENT_SET_NO,REV_AT_EPOCH,BSTAR,MEAN_MOTION_DOT,MEAN_MOTION_DDOT
DUBAISAT-1,2009-041B,2026-07-15T22:00:43.150176,14.75167272,.0009889,98.0086,329.8660,346.2554,13.8385,0,U,35682,999,90933,.63132E-4,.375E-5,0
OCEANSAT-2,2009-051A,2026-07-16T05:20:59.015328,13.99655946,.00174054,98.2320,181.1754,150.5265,209.6887,0,U,35931,999,88339,-.15504641E-4,-.6E-6,0
WORLDVIEW-2 (WV-2),2009-055A,2026-07-16T06:00:59.689440,14.37907096,.00053537,98.4756,270.3046,127.2925,232.8751,0,U,35946,999,87982,.28708983E-4,.43E-6,0
SMOS,2009-059A,2026-07-16T02:23:48.818976,14.39736354,.00011648,98.4429,24.0111,97.2447,262.8874,0,U,36036,999,87761,.5170738E-4,.118E-5,0
YAOGAN-7,2009-069A,2026-07-16T04:46:55.784064,14.78035992,.00234499,98.0031,82.8821,307.9538,51.9554,0,U,36110,999,89391,.32788558E-4,.184E-5,0
TANDEM-X,2010-030A,2026-07-07T11:29:58.986816,15.19154052,.0001887,97.4457,195.8973,94.3019,265.8431,0,U,36605,999,88972,.21566E-4,.386E-5,0
CARTOSAT-2B,2010-035A,2026-07-16T07:16:05.184192,14.78651478,.00127064,97.9938,247.6636,96.5827,263.6831,0,U,36795,999,86415,.44272785E-4,.272E-5,0
YAOGAN-10,2010-038A,2026-07-16T07:53:27.919104,14.85433996,.00016966,97.8966,220.5011,82.7260,38.9666,0,U,36834,999,86153,.16944451E-3,.1406E-4,0
COSMO-SKYMED 4,2010-060A,2026-07-16T06:29:52.958976,14.82149535,.00014974,97.8887,20.4493,87.6570,272.4815,0,U,37216,999,84887,.5653932E-4,.398E-5,0
RESOURCESAT-2,2011-015A,2026-07-16T05:27:36.781920,14.21599672,.00116107,98.7632,264.4666,168.1912,191.9539,0,U,37387,999,79030,.30406675E-4,.22E-6,0
RASAT,2011-044D,2026-07-16T06:47:30.093216,14.68192470,.00219365,98.0587,288.2360,99.5273,345.4998,0,U,37791,999,79745,.150561E-6,-.48E-6,0
SRMSAT,2011-058D,2026-07-16T06:36:22.554720,14.11581223,.00117264,19.9709,243.4089,163.0492,264.2388,0,U,37841,999,76193,.35417231E-4,.33E-5,0
PLEIADES 1A,2011-076F,2026-07-16T06:53:39.175008,14.58547099,.00016553,98.1974,271.9975,78.9433,12.6878,0,U,38012,999,77623,.26887479E-4,.79E-6,0
ZIYUAN 1-02C (ZY 1-02C),2011-079A,2026-07-16T07:12:06.289056,14.38236494,.00056446,98.4064,263.9986,210.9958,236.5997,0,U,38038,999,76339,.10131782E-3,.265E-5,0
ARIRANG-3 (KOMPSAT-3),2012-025B,2026-07-16T06:03:19.805184,14.62229488,.00061614,98.1185,154.2138,36.0894,324.0722,0,U,38338,999,75559,.44257027E-4,.176E-5,0
EXACTVIEW-1 (ADS-1B),2012-039C,2026-07-15T21:19:45.519456,14.24992315,.00119555,98.9806,314.9310,89.7225,270.5323,0,U,38709,999,72679,.34981974E-4,.35E-6,0
SPOT 6,2012-047A,2026-07-16T06:50:41.407008,14.58538762,.00011182,98.2111,264.2514,87.1688,272.9639,0,U,38755,999,73729,.5260969E-5,-.21E-6,0
PLEIADES 1B,2012-068A,2026-07-16T07:17:28.396896,14.58534246,.00015643,98.1945,271.9529,79.0322,281.1053,0,U,39019,999,72509,.3165569E-5,-.31E-6,0
GOKTURK 2,2012-073A,2026-07-16T07:23:25.050912,14.75568437,.00009417,97.6804,33.2782,97.2843,262.8474,0,U,39030,999,72880,.37805304E-4,.211E-5,0
LANDSAT 8,2013-008A,2026-07-16T05:01:35.704992,14.57094495,.00013608,98.2290,266.9980,92.6241,267.5113,0,U,39084,999,70212,.42523222E-4,.146E-5,0
SARAL,2013-009A,2026-07-16T07:11:23.815680,14.32895955,.00017611,98.5556,23.4988,163.9147,196.2094,0,U,39086,999,69977,.23147134E-4,.19E-6,0
GAOFEN-1,2013-018A,2026-07-16T06:30:06.718176,14.76518116,.00171259,97.9089,268.7458,167.7381,192.4249,0,U,39150,999,71253,-.16773369E-4,-.168E-5,0
VNREDSAT 1,2013-021B,2026-07-16T07:46:46.452864,14.64884602,.00015773,97.9065,249.6199,79.4621,280.6761,0,U,39160,999,70455,.57277533E-4,.261E-5,0
ARIRANG-5 (KOMPSAT-5),2013-042A,2026-07-16T07:07:13.884672,15.04495046,.00053215,97.6202,23.5881,55.1345,305.0381,0,U,39227,999,70823,.11557159E-4,.101E-5,0
SKYSAT-A,2013-066C,2026-07-16T02:11:55.333824,15.13117895,.0020616,97.3803,245.5676,210.1814,149.8231,0,U,39418,999,69285,.86164243E-4,.1469E-4,0
DUBAISAT-2,2013-066D,2026-07-16T05:20:44.623680,15.10381137,.00092266,97.4577,186.6122,299.2690,60.7617,0,U,39419,999,69077,.14821599E-3,.2372E-4,0
GPM-CORE,2014-009C,2026-07-16T06:37:19.791264,15.45050158,.00109282,64.9691,210.6643,262.4228,97.5671,0,U,39574,999,70230,.68842202E-4,.3013E-4,0
SENTINEL-1A,2014-016A,2026-07-16T07:18:39.071232,14.59196633,.00014269,98.1768,204.4124,85.7195,274.4167,0,U,39634,999,65426,.48342039E-4,.182E-5,0
KAZEOSAT 1,2014-024A,2026-07-16T07:15:22.633056,14.42037391,.00012199,98.3202,269.0234,83.1868,276.9460,0,U,39731,999,64275,.13331674E-4,.1E-7,0
